NORAD_CAT_ID,OBJECT_NAME,OBJECT_TYPE,EPOCH,MEAN_MOTION,ECCENTRICITY,INCLINATION,RA_OF_ASC_NODE,ARG_OF_PERICENTER,MEAN_ANOMALY,BSTAR,MEAN_MOTION_DOT,MEAN_MOTION_DDOT,TLE_LINE0,TLE_LINE1,TLE_LINE2,SEMIMAJOR_AXIS,PERIOD,APOGEE,PERIGEE,DECAYED
55930.0,STARLINK-5896,PAYLOAD,2024-04-05 14:05:51,14.98331547,0.000301,69.9996,257.1717,269.7443,90.3371,4.4644e-07,-8.8e-07,0.0,0 STARLINK-5896,1 55930U 23037S   24096.58740113 -.00000088  00000-0  44644-6 0  9992,2 55930  69.9996 257.1717 0003010 269.7443  90.3371 14.98331547 58664,6950.188,96.107,574.145,569.961,0.0
55930.0,STARLINK-5896,PAYLOAD,2024-04-05 20:30:23,14.98334363,0.0003,69.9995,256.4981,269.2013,90.8802,3.445e-05,3.18e-06,0.0,0 STARLINK-5896,1 55930U 23037S   24096.85443776  .00000318  00000-0  34450-4 0  9994,2 55930  69.9995 256.4981 0003000 269.2013  90.8802 14.98334363 59041,6950.179,96.107,574.129,569.959,0.0
55930.0,STARLINK-5896,PAYLOAD,2024-04-06 04:31:03,14.98331245,0.0003,69.9995,255.6559,269.9279,90.1536,-1.11e-05,-2.25e-06,0.0,0 STARLINK-5896,1 55930U 23037S   24097.18824027 -.00000225  00000-0 -11100-4 0  9999,2 55930  69.9995 255.6559 0003000 269.9279  90.1536 14.98331245 58754,6950.189,96.107,574.139,569.969,0.0
55930.0,STARLINK-5896,PAYLOAD,2024-04-06 20:32:24,14.9833,0.0003067,69.9993,253.9729,270.4827,89.598,-9.0314e-06,-2.01e-06,0.0,0 STARLINK-5896,1 55930U 23037S   24097.85584034 -.00000201  00000-0 -90314-5 0  9993,2 55930  69.9993 253.9729 0003067 270.4827  89.5980 14.98330000 59193,6950.193,96.107,574.19,569.926,0.0
55930.0,STARLINK-5896,PAYLOAD,2024-04-07 09:21:29,14.98323282,0.0002851,70.0001,252.6265,268.8794,91.2039,-4.7998e-05,-6.66e-06,0.0,0 STARLINK-5896,1 55930U 23037S   24098.38992645 -.00000666  00000-0 -47998-4 0  9997,2 55930  70.0001 252.6265 0002851 268.8794  91.2039 14.98323282 59279,6950.214,96.107,574.06,570.097,0.0
55930.0,STARLINK-5896,PAYLOAD,2024-04-07 20:34:25,14.98349266,0.0003202,69.9991,251.448,271.4325,88.6467,-0.00048064,-5.826e-05,0.0,0 STARLINK-5896,1 55930U 23037S   24098.85724112 -.00005826  00000-0 -48064-3 0  9998,2 55930  69.9991 251.4480 0003202 271.4325  88.6467 14.98349266 59344,6950.133,96.106,574.224,569.773,0.0
55930.0,STARLINK-5896,PAYLOAD,2024-04-08 02:58:58,14.98330848,0.000291,70.0001,250.775,270.1667,89.9158,-4.1809e-05,-5.92e-06,0.0,0 STARLINK-5896,1 55930U 23037S   24099.12428378 -.00000592  00000-0 -41809-4 0  9990,2 55930  70.0001 250.7750 0002910 270.1667  89.9158 14.98330848 59382,6950.19,96.107,574.078,570.033,0.0
55930.0,STARLINK-5896,PAYLOAD,2024-04-08 20:36:26,14.98333399,0.0003059,69.9988,248.9227,272.6026,87.4783,0.00011167,1.24e-05,0.0,0 STARLINK-5896,1 55930U 23037S   24099.85863635  .00001240  00000-0  11167-3 0  9991,2 55930  69.9988 248.9227 0003059 272.6026  87.4783 14.98333399 59495,6950.182,96.107,574.173,569.921,0.0
55930.0,STARLINK-5896,PAYLOAD,2024-04-09 03:00:58,14.98331474,0.0003055,69.9981,248.2492,272.1803,87.9006,8.4006e-05,9.09e-06,0.0,0 STARLINK-5896,1 55930U 23037S   24100.12567796  .00000909  00000-0  84006-4 0  9997,2 55930  69.9981 248.2492 0003055 272.1803  87.9006 14.98331474 59191,6950.188,96.107,574.177,569.93,0.0
55930.0,STARLINK-5896,PAYLOAD,2024-04-09 15:50:03,14.98326316,0.0003042,70.0023,246.9028,270.7596,89.3215,2.6714e-05,2.26e-06,0.0,0 STARLINK-5896,1 55930U 23037S   24100.65976339  .00000226  00000-0  26714-4 0  9996,2 55930  70.0023 246.9028 0003042 270.7596  89.3215 14.98326316 59614,6950.204,96.107,574.184,569.955,0.0
55930.0,STARLINK-5896,PAYLOAD,2024-04-10 09:27:31,14.98334452,0.0002922,70.002,245.052,270.4723,89.6101,-3.9188e-05,-5.61e-06,0.0,0 STARLINK-5896,1 55930U 23037S   24101.39412029 -.00000561  00000-0 -39188-4 0  9992,2 55930  70.0020 245.0520 0002922 270.4723  89.6101 14.98334452 59384,6950.179,96.107,574.075,570.013,0.0
55930.0,STARLINK-5896,PAYLOAD,2024-04-10 19:04:20,14.98334916,0.000292,70.0018,244.0419,269.7999,90.2826,-1.3661e-05,-2.56e-06,0.0,0 STARLINK-5896,1 55930U 23037S   24101.79467775 -.00000256  00000-0 -13661-4 0  9993,2 55930  70.0018 244.0419 0002920 269.7999  90.2826 14.98334916 59782,6950.178,96.107,574.072,570.013,0.0
55930.0,STARLINK-5896,PAYLOAD,2024-04-11 14:17:57,14.98328313,0.000293,70.0001,242.0223,270.0485,90.0338,-4.7329e-06,-1.49e-06,0.0,0 STARLINK-5896,1 55930U 23037S   24102.59580085 -.00000149  00000-0 -47329-5 0  9992,2 55930  70.0001 242.0223 0002930 270.0485  90.0338 14.98328313 59567,6950.198,96.107,574.1,570.027,0.0
55930.0,STARLINK-5896,PAYLOAD,2024-04-11 19:06:21,14.98329093,0.0002945,70.0003,241.5187,271.555,88.5272,5.6593e-06,-2.5e-07,0.0,0 STARLINK-5896,1 55930U 23037S   24102.79608034 -.00000025  00000-0  56593-5 0  9994,2 55930  70.0003 241.5187 0002945 271.5550  88.5272 14.98329093 59933,6950.196,96.107,574.108,570.014,0.0
55930.0,STARLINK-5896,PAYLOAD,2024-04-12 14:19:58,14.98329264,0.0002999,70.0004,239.4977,272.481,87.6005,-2.5314e-05,-3.95e-06,0.0,0 STARLINK-5896,1 55930U 23037S   24103.59720181 -.00000395  00000-0 -25314-4 0  9998,2 55930  70.0004 239.4977 0002999 272.4810  87.6005 14.98329264 59715,6950.195,96.107,574.145,569.976,0.0
55930.0,STARLINK-5896,PAYLOAD,2024-04-13 12:45:51,14.98328687,0.0003002,70.0007,237.1412,273.4806,86.601,1.5991e-05,9.8e-07,0.0,0 STARLINK-5896,1 55930U 23037S   24104.53184127  .00000098  00000-0  15991-4 0  9995,2 55930  70.0007 237.1412 0003002 273.4806  86.6010 14.98328687 60196,6950.197,96.107,574.148,569.976,0.0
55930.0,STARLINK-5896,PAYLOAD,2024-04-13 14:21:59,14.98327298,0.0002776,70.0007,236.9726,269.9366,90.1475,4.2429e-05,4.13e-06,0.0,0 STARLINK-5896,1 55930U 23037S   24104.59860143  .00000413  00000-0  42429-4 0  9997,2 55930  70.0007 236.9726 0002776 269.9366  90.1475 14.98327298 59863,6950.201,96.107,573.996,570.137,0.0
55930.0,STARLINK-5896,PAYLOAD,2024-04-13 17:34:14,14.9833696,0.0002511,70.0016,236.637,262.8517,97.2356,-6.0866e-05,-8.19e-06,0.0,0 STARLINK-5896,1 55930U 23037S   24104.73211759 -.00000819  00000-0 -60866-4 0  9993,2 55930  70.0016 236.6370 0002511 262.8517  97.2356 14.98336960 60226,6950.171,96.107,573.782,570.291,0.0
55930.0,STARLINK-5896,PAYLOAD,2024-04-14 12:47:53,14.98307771,0.000219,70.0025,234.6172,259.3395,100.7517,-7.7915e-05,-1.022e-05,0.0,0 STARLINK-5896,1 55930U 23037S   24105.53325705 -.00001022  00000-0 -77915-4 0  9999,2 55930  70.0025 234.6172 0002190 259.3395 100.7517 14.98307771 60342,6950.262,96.108,573.649,570.605,0.0
55930.0,STARLINK-5896,PAYLOAD,2024-04-14 17:36:15,14.98336138,0.0002514,70.0019,234.1119,268.6395,91.4476,8.551e-05,9.28e-06,0.0,0 STARLINK-5896,1 55930U 23037S   24105.73351415  .00000928  00000-0  85510-4 0  9990,2 55930  70.0019 234.1119 0002514 268.6395  91.4476 14.98336138 60376,6950.174,96.107,573.786,570.292,0.0
55930.0,STARLINK-5896,PAYLOAD,2024-04-15 12:49:55,14.98306301,0.0002608,70.0013,232.0915,257.8073,102.2794,-0.00023422,-2.885e-05,0.0,0 STARLINK-5896,1 55930U 23037S   24106.53466689 -.00002885  00000-0 -23422-3 0  9998,2 55930  70.0013 232.0915 0002608 257.8073 102.2794 14.98306301 60494,6950.266,96.109,573.944,570.319,0.0
55930.0,STARLINK-5896,PAYLOAD,2024-04-15 14:26:01,14.98325222,0.0002889,70.0014,231.9236,275.5874,84.4955,-4.9334e-07,-9.9e-07,0.0,0 STARLINK-5896,1 55930U 23037S   24106.60141105 -.00000099  00000-0 -49334-6 0  9997,2 55930  70.0014 231.9236 0002889 275.5874  84.4955 14.98325222 60163,6950.208,96.107,574.081,570.065,0.0
55930.0,STARLINK-5896,PAYLOAD,2024-04-16 11:15:45,14.98339119,0.0002845,70.0021,229.7358,274.4273,85.6561,0.00015848,1.799e-05,0.0,0 STARLINK-5896,1 55930U 23037S   24107.46928056  .00001799  00000-0  15848-3 0  9996,2 55930  70.0021 229.7358 0002845 274.4273  85.6561 14.98339119 60632,6950.165,96.106,574.007,570.052,0.0
55930.0,STARLINK-5896,PAYLOAD,2024-04-16 14:28:01,14.98348349,0.000334,70.0,229.3981,274.0622,86.0156,0.00025952,3.006e-05,0.0,0 STARLINK-5896,1 55930U 23037S   24107.60279023  .00003006  00000-0  25952-3 0  9995,2 55930  70.0000 229.3981 0003340 274.0622  86.0156 14.98348349 60317,6950.136,96.106,574.322,569.68,0.0
55930.0,STARLINK-5896,PAYLOAD,2024-04-16 17:40:16,14.98356013,0.0003049,70.0013,229.0621,275.1854,84.8957,0.00030383,3.537e-05,0.0,0 STARLINK-5896,1 55930U 23037S   24107.73630292  .00003537  00000-0  30383-3 0  9991,2 55930  70.0013 229.0621 0003049 275.1854  84.8957 14.98356013 60675,6950.112,96.105,574.097,569.858,0.0
55930.0,STARLINK-5896,PAYLOAD,2024-04-17 12:53:54,14.98329855,0.0002934,70.0016,227.0436,273.5523,86.5301,0.00028149,3.267e-05,0.0,0 STARLINK-5896,1 55930U 23037S   24108.53743782  .00003267  00000-0  28149-3 0  9996,2 55930  70.0016 227.0436 0002934 273.5523  86.5301 14.98329855 60796,6950.193,96.107,574.098,570.019,0.0
55930.0,STARLINK-5896,PAYLOAD,2024-04-17 14:30:02,14.98332116,0.0002789,70.0018,226.8752,269.5002,90.5838,0.00025865,2.995e-05,0.0,0 STARLINK-5896,1 55930U 23037S   24108.60419648  .00002995  00000-0  25865-3 0  9994,2 55930  70.0018 226.8752 0002789 269.5002  90.5838 14.98332116 60469,6950.186,96.107,573.99,570.113,0.0
55930.0,STARLINK-5896,PAYLOAD,2024-04-17 17:42:18,14.98338028,0.0002901,70.0015,226.5386,268.8268,91.2559,0.00030256,3.52e-05,0.0,0 STARLINK-5896,1 55930U 23037S   24108.73771056  .00003520  00000-0  30256-3 0  9997,2 55930  70.0015 226.5386 0002901 268.8268  91.2559 14.98338028 60824,6950.168,96.106,574.049,570.017,0.0
55930.0,STARLINK-5896,PAYLOAD,2024-04-18 11:19:48,14.98331136,0.0003193,70.0012,224.6869,272.9087,87.1706,-0.00020862,-2.581e-05,0.0,0 STARLINK-5896,1 55930U 23037S   24109.47208742 -.00002581  00000-0 -20862-3 0  9996,2 55930  70.0012 224.6869 0003193 272.9087  87.1706 14.98331136 60938,6950.189,96.107,574.274,569.835,0.0
55930.0,STARLINK-5896,PAYLOAD,2024-04-18 17:44:20,14.9833865,0.0002974,70.0019,224.0152,268.3299,91.7519,-0.0002368,-2.918e-05,0.0,0 STARLINK-5896,1 55930U 23037S   24109.73912141 -.00002918  00000-0 -23680-3 0  9995,2 55930  70.0019 224.0152 0002974 268.3299  91.7519 14.98338650 60979,6950.166,96.106,574.098,569.964,0.0
